INTELSAT 10 (IS-10)     
1 26766U 01019A   18095.14007734  .00000110  00000-0  00000+0 0  9998
2 26766   2.1322  83.7381 0002808 312.1353 255.4516  1.00269978 61899
INTELSAT 901 (IS-901)   
1 26824U 01024A   18094.85095875 -.00000206  00000-0  00000-0 0  9997
2 26824   0.0859  87.7560 0002934 298.8268  90.3957  1.00148302 61650
ASTRA 2C                
1 26853U 01025A   18094.87754251  .00000030  00000-0  00000-0 0  9996
2 26853   1.0232  90.6242 0003688 284.4837 194.2081  1.00271718 15028
INTELSAT 902 (IS-902)   
1 26900U 01039A   18094.90526713  .00000016  00000-0  00000-0 0  9992
2 26900   0.0199 248.7387 0002958 132.9422 199.3686  1.00271337 60680
EUTELSAT 12 WEST B      
1 26927U 01042A   18095.21643183 -.00000117  00000-0  00000+0 0  9993
2 26927   0.0636  19.4075 0006212 359.1732 240.2875  1.00272393 60494
DIRECTV 4S              
1 26985U 01052A   18095.10381698 -.00000130  00000-0  00000+0 0  9991
2 26985   0.0036 205.0880 0003133 177.0526 107.3788  1.00271882 59964
ECHOSTAR 7              
1 27378U 02006A   18095.23879519 -.00000017  00000-0  00000+0 0  9990
2 27378   0.0411  79.5951 0001700 280.7284 160.3068  1.00272443 59034
INTELSAT 904 (IS-904)   
1 27380U 02007A   18094.84560062  .00000119  00000-0  00000-0 0  9993
2 27380   0.0108 207.2588 0002866 172.5002 162.8377  1.00272597 21732
TDRS 9                  
1 27389U 02011A   18095.21643183 -.00000114  00000-0  00000+0 0  9990
2 27389   5.8462  75.6251 0023036 259.1593 284.4398  1.00272666 60408
JCSAT 2A                
1 27399U 02015A   18095.06160576 -.00000271  00000-0  00000+0 0  9992
2 27399   1.1032  90.8404 0007240 189.6801  27.9652  1.00274551 58582
ASTRA 3A                
1 27400U 02015B   18094.78174574 -.00000296  00000-0  00000+0 0  9993
2 27400   4.3685  67.3982 0002721 311.4727  48.6091  1.00271881 58686
INTELSAT 903 (IS-903)   
1 27403U 02016A   18095.35410583 -.00000240  00000-0  00000+0 0  9993
2 27403   0.4692  94.5242 0002583 317.3792 237.6522  1.00271068 58617
NSS-7                   
1 27414U 02019A   18093.74948552 -.00000174  00000-0  00000-0 0  9998
2 27414   2.4994  81.4876 0002677 279.7897  80.5579  1.00272439 58525
DIRECTV 5 (TEMPO 1)     
1 27426U 02023A   18093.77248083 -.00000075  00000-0  00000+0 0  9990
2 27426   0.0233 191.9699 0003330 195.3871 332.6605  1.00270853 58260
INTELSAT 905 (IS-905)   
1 27438U 02027A   18095.35377718 -.00000201  00000-0  00000+0 0  9992
2 27438   0.0128 207.9000 0002732 147.9077 300.6519  1.00272156 57936
EXPRESS-A4              
1 27441U 02029A   18095.27601742 -.00000258  00000-0  00000+0 0  9998
2 27441   6.5456  54.7022 0005189  52.8119 330.8148  1.00274933 57946
GALAXY 3C (G-3C)        
1 27445U 02030A   18094.72798873 -.00000168  00000-0  00000+0 0  9995
2 27445   0.0198 278.1833 0001652  60.0637  21.7353  1.00271004 57929
EUTELSAT 5 WEST A       
1 27460U 02035A   18094.47848781 -.00000060  00000-0  00000+0 0  9994
2 27460   0.0530   0.0994 0005854  19.2879 340.6238  1.00271190 57716
N-STAR C                
1 27461U 02035B   18094.78292312 -.00000325  00000-0  00000+0 0  9996
2 27461   5.1676  63.2012 0004426 338.8917 208.8079  1.00271761 57625
EUTELSAT 36 WEST A      
1 27508U 02040A   18095.29768659  .00000038  00000-0  00000+0 0  9993
2 27508   0.0690  23.5436 0000706 355.7910 340.6580  1.00270284 57221
METEOSAT-8 (MSG-1)      
1 27509U 02040B   18095.50537086  .00000126  00000-0  00000+0 0  9994
2 27509   5.3438  57.2354 0003280 328.5990  31.4130  1.00281456 57228
INTELSAT 906 (IS-906)   
1 27513U 02041A   18094.90385164 -.00000002  00000-0  00000+0 0  9995
2 27513   0.0193 225.5394 0002790 147.0761 210.0763  1.00272099 56939
HISPASAT 1D             
1 27528U 02044A   18095.35818196 -.00000233  00000-0  00000+0 0  9996
2 27528   0.0438  17.1922 0005526 354.2143 281.1179  1.00270993 56914
TDRS 10                 
1 27566U 02055A   18094.10818433  .00000063  00000-0  00000-0 0  9997
2 27566   5.5326  57.1318 0011299 256.3179 103.5955  1.00266037 56193
NSS-6                   
1 27603U 02057A   18095.38448727 -.00000285  00000-0  00000+0 0  9993
2 27603   0.0341 101.8185 0001716 260.2782  64.9149  1.00270663 56069
NIMIQ 2                 
1 27632U 02062A   18094.44117240 -.00000243  00000-0  00000-0 0  9995
2 27632   2.6020  80.6628 0003231 359.6984   0.6315  1.00273359 14173
INTELSAT 907 (IS-907)   
1 27683U 03007A   18093.54360053 -.00000222  00000-0  00000-0 0  9990
2 27683   0.0164 224.3130 0002996 151.5143 344.1692  1.00272863 55402
GALAXY 12 (G-12)        
1 27715U 03013B   18094.47479979  .00000041  00000-0  00000+0 0  9991
2 27715   0.0388  86.0196 0002212 303.1519 205.4729  1.00271715 54969
ASIASAT 4               
1 27718U 03014A   18093.06849459  .00000132  00000-0  00000-0 0  9995
2 27718   0.0132 160.2440 0000552 207.7161 246.2343  1.00274109 54867
HELLAS-SAT 2            
1 27811U 03020A   18095.15561865  .00000136  00000-0  00000+0 0  9993
2 27811   0.0975 129.6828 0001205 221.7299 297.0269  1.00275956 54300
THURAYA-2               
1 27825U 03026A   18094.29771425  .00000115  00000-0  00000+0 0  9990
2 27825   5.1723  30.2604 0005412 333.3988 340.0755  1.00274956 54308
OPTUS C1                
1 27831U 03028B   18094.74976569 -.00000164  00000-0  00000+0 0  9990
2 27831   0.0292 184.8388 0002573 196.5193 237.5653  1.00272395 54286
ECHOSTAR 12 (RAINBOW 1) 
1 27852U 03033A   18094.44684424 -.00000217  00000-0  00000+0 0  9991
2 27852   0.0397  82.9565 0001610 316.0345 228.1860  1.00272721 53939
GALAXY 23 (G-23)        
1 27854U 03034A   18095.36507736 -.00000004  00000-0  00000+0 0  9990
2 27854   0.0119 216.5574 0002930 160.3970 187.0903  1.00272914 58512
GALAXY 13 (HORIZONS-1)  
1 27954U 03044A   18094.39008002  .00000030  00000-0  00000+0 0  9994
2 27954   0.0060 191.5513 0001300 201.1003 173.4118  1.00271889 53123
YAMAL 202               
1 28089U 03053A   18094.84560063  .00000103  00000-0  00000+0 0  9995
2 28089   0.0635  94.1651 0003414 266.3302 186.0017  1.00270600 52649
EXPRESS-AM22 (SESAT 2)  
1 28134U 03060A   18094.99232204 -.00000154  00000-0  00000+0 0  9990
2 28134   1.0748  90.2287 0000468  11.2547 169.0901  1.00272348 52231
AMC-10 (GE-10)          
1 28154U 04003A   18094.61696698  .00000070  00000-0  00000+0 0  9996
2 28154   0.0400  84.4188 0002385 326.7490 228.8047  1.00272009 51893
ABS-4 (MOBISAT-1)       
1 28184U 04007A   18095.37340924  .00000025  00000-0  00000+0 0  9995
2 28184   0.0118 214.0021 0001893 164.8404  10.1886  1.00273135 51555
EUTELSAT 7A             
1 28187U 04008A   18094.39702104  .00000030  00000-0  00000-0 0  9999
2 28187   0.0663  15.1300 0003202  13.3060 314.1206  1.00272877 51336
DIRECTV 7S              
1 28238U 04016A   18095.30326933 -.00000016  00000-0  00000+0 0  9993
2 28238   0.0144 281.2893 0003491 107.2650 155.1044  1.00273849 51038
AMC-11 (GE-11)          
1 28252U 04017A   18094.67391303  .00000052  00000-0  00000+0 0  9991
2 28252   0.0464  58.4321 0002851 330.7476 275.3482  1.00271804 50665
INTELSAT 10-02          
1 28358U 04022A   18095.26854892 -.00000027  00000-0  00000+0 0  9990
2 28358   0.0138 165.8661 0000417 207.9393 275.3922  1.00273870 50595
APSTAR 5 (TELSTAR 18)   
1 28364U 04024A   18095.22966101 -.00000311  00000-0  00000+0 0  9998
2 28364   0.0402  94.8186 0003158 274.9677  44.3627  1.00270834 50529
ANIK F2                 
1 28378U 04027A   18094.60999428 -.00000067  00000-0  00000-0 0  9994
2 28378   0.0129 199.2296 0000403 263.6538 198.5060  1.00270631 11258
AMC-15                  
1 28446U 04041A   18095.24013948 -.00000105  00000-0  00000+0 0  9993
2 28446   0.0454  55.7066 0002553 312.2095 166.9477  1.00271792 49355
AMC-16                  
1 28472U 04048A   18094.51920920 -.00000224  00000-0  00000-0 0  9998
2 28472   0.0448  64.9026 0002835 323.4991 266.2863  1.00272404 48709
NSS-10 (AMC-12)         
1 28526U 05003A   18095.28309885 -.00000267  00000-0  00000+0 0  9992
2 28526   0.0169 284.9070 0002910  94.5751 238.5113  1.00271881 48287
XTAR-EUR                
1 28542U 05005A   18094.38437484  .00000133  00000-0  00000+0 0  9990
2 28542   0.0189 231.7693 0003503 154.2527 333.9842  1.00273741 48143
XM-3 (RHYTHM)           
1 28626U 05008A   18094.44846674 -.00000224  00000-0  00000+0 0  9990
2 28626   0.0198  73.6914 0000620  28.5301 166.8437  1.00273683 48020
INMARSAT 4-F1           
1 28628U 05009A   18095.10875154 -.00000276  00000-0  00000+0 0  9999
2 28628   2.9142  16.1292 0003511  14.0873 345.7849  1.00272682 47649
APSTAR 6                
1 28638U 05012A   18094.78287738 -.00000336  00000-0  00000+0 0  9999
2 28638   0.0400 102.9502 0002312 285.3298 220.5678  1.00269196 72370
SPACEWAY 1              
1 28644U 05015A   18094.48410458 -.00000120  00000-0  00000+0 0  9994
2 28644   0.0088 228.6855 0000338 211.5104 183.8904  1.00270530 47479
DIRECTV 8               
1 28659U 05019A   18094.74406910 -.00000133  00000-0  00000+0 0  9995
2 28659   0.0178 235.9723 0003287 143.8921 340.1376  1.00272695 47150
GALAXY 28 (G-28)        
1 28702U 05022A   18095.18868806 -.00000202  00000-0  00000+0 0  9990
2 28702   0.0111 239.4061 0000039 206.0056  86.9424  1.00271509 46794
EXPRESS-AM3             
1 28707U 05023A   18092.79260185 -.00000343  00000-0  00000+0 0  9992
2 28707   0.0156 314.2840 0001112  59.3164 205.8083  1.00271968 46799
THAICOM 4               
1 28786U 05028A   18095.38318517 -.00000379  00000-0  00000+0 0  9994
2 28786   0.0146 196.2624 0002208 184.6419  70.1584  1.00269326 46294
GALAXY 14 (G-14)        
1 28790U 05030A   18095.30326933  .00000020  00000-0  00000+0 0  9997
2 28790   0.0410  77.4154 0002780 308.6410 151.6756  1.00274232 46271
ANIK F1R                
1 28868U 05036A   18095.17023451 -.00000091  00000-0  00000+0 0  9992
2 28868   0.0390  53.3336 0003228 333.0587 120.9938  1.00272298 46129
